{"version":"1.0","month":"2025-03","count":1474,"tles":{"43107":["1 43107U 18003A   25073.18435559 -.00000074  00000-0  00000-0 0    10","2 43107  54.7265 318.3053 0004692  63.7890 296.3147  1.86232549 48782"],"43108":["1 43108U 18003B   25074.20091284 -.00000075  00000-0  00000+0 0   816","2 43108  54.7186 318.2542 0003199 286.2448  73.7754  1.86231056 48816"],"43113":["1 43113U 18004C   25074.55204433  .00005670  00000-0  40637-3 0  7493","2 43113  99.2913 288.2966 0364028  42.9356 319.9654 14.64202215370284"],"43146":["1 43146U 18006A   25074.20123339  .00019660  00000-0  81797-3 0  4626","2 43146  97.6025 217.5596 0004414 128.0839 232.0797 15.23798509398557"],"43152":["1 43152U 18007A   25074.14478397  .00020997  00000-0  90948-3 0  7136","2 43152  97.4080  83.0105 0001588  86.7684 273.3734 15.22422030397574"],"43159":["1 43159U 18008E   25074.21897358  .00015844  00000-0  61909-3 0  4681","2 43159  97.2168 103.1805 0008155 252.8500 107.1846 15.25923022394808"],"43160":["1 43160U 18008F   25074.21938485  .00014153  00000-0  56095-3 0  4637","2 43160  97.2181 102.8169 0005276 269.8704  90.1930 15.25489400394788"],"43169":["1 43169U 18011A   25074.34680758  .00006616  00000-0  55205-3 0    16","2 43169  34.9965  65.0590 0003084 336.0964  23.9599 14.97946228389203"],"43174":["1 43174U 18012A   25074.18051083 -.00000158  00000-0  00000+0 0  8729","2 43174   0.3625  89.1789 0004519 272.8246 215.8992  1.00273000 26231"],"43180":["1 43180U 18014A   25074.19243849  .00000515  00000-0  25624-4 0  7158","2 43180  97.3839 343.2956 0001741  82.6889 277.4545 15.21898920394862"],"43207":["1 43207U 18018A   25073.03113192  .00000002  00000-0  00000-0 0    17","2 43207  56.2481  78.3680 0006940 342.9275  17.0822  1.86231357 48173"],"43208":["1 43208U 18018B   25074.17155630 -.00000004  00000-0  00000-0 0    10","2 43208  56.2484  78.3343 0010061 314.0394  45.9057  1.86231455 48195"],"43226":["1 43226U 18022A   25074.55564406 -.00000095  00000-0  00000+0 0  5027","2 43226   0.0532 315.2912 0001617 120.6677 193.0492  1.00272436 25837"],"43245":["1 43245U 18029A   25072.24264211 -.00000069  00000-0  00000+0 0  1522","2 43245  54.6023 316.0187 0001002 358.1074   1.9481  1.86232827 47314"],"43246":["1 43246U 18029B   25073.24738405 -.00000070  00000-0  00000-0 0    11","2 43246  54.5991 316.0115 0005051  15.8226 344.2494  1.86229090 47318"],"43437":["1 43437U 18039A   25074.18946736  .00000399  00000-0  18288-3 0  9591","2 43437  98.6244 143.2213 0001304 125.6974 234.4328 14.26741004358678"],"43476":["1 43476U 18047A   25074.50613180  .00008337  00000-0  25588-3 0   203","2 43476  88.9688 261.4149 0014647  96.1837 264.1084 15.33501411379396"],"43477":["1 43477U 18047B   25074.50645873  .00008333  00000-0  25575-3 0   413","2 43477  88.9688 261.4143 0014669  96.1907 264.1018 15.33499230379395"],"43508":["1 43508U 18053A   25074.14749073  .00000033  00000-0  00000-0 0    10","2 43508  65.3290  89.2468 0009769 245.2094 114.7360  2.13102375 52497"],"43539":["1 43539U 18057A   25074.68153205 -.00000132  00000-0  00000+0 0  8482","2 43539  55.1580 167.0347 0085977 235.1955 129.2214  1.00285748 24523"],"43564":["1 43564U 18060A   25076.11529864 -.00000097  00000-0  00000+0 0  8459","2 43564  57.2836 354.1161 0005035 309.8551  50.1231  1.70475623 41383"],"43565":["1 43565U 18060B   25078.09396760 -.00000090  00000-0  00000-0 0    14","2 43565  57.2866 354.0651 0004237 281.2217  78.7568  1.70475320 41456"],"43566":["1 43566U 18060C   25071.27642253 -.00000111  00000-0  00000+0 0  8706","2 43566  57.2867 354.2510 0004780 325.0073  34.9676  1.70475353 41319"],"43567":["1 43567U 18060D   25075.01669996 -.00000100  00000-0  00000+0 0  8300","2 43567  57.2870 354.1495 0005479 303.1568  56.8100  1.70475730 41355"],"43581":["1 43581U 18062A   25074.00977161 -.00000007  00000-0  00000+0 0  9039","2 43581  54.1073 197.9159 0002104 296.6688  63.2726  1.86228799 45081"],"43582":["1 43582U 18062B   25073.87423247 -.00000009  00000-0  00000+0 0  8519","2 43582  54.1068 197.9098 0005720  38.8628 321.1404  1.86229574 45086"],"43602":["1 43602U 18067A   25074.34614821 -.00000002  00000-0  00000+0 0  8984","2 43602  54.1993 196.6002 0007886  34.5379 325.4806  1.86227910 44576"],"43603":["1 43603U 18067B   25074.47993384 -.00000000  00000-0  00000+0 0  8554","2 43603  54.1966 196.5602 0004469  28.1484 331.8440  1.86227367 44607"],"43613":["1 43613U 18070A   25074.54107440  .00027393  00000-0  99204-3 0    11","2 43613  91.9983 167.6215 0005864 146.9829 213.1787 15.28286135362414"],"43622":["1 43622U 18072A   25075.51355047 -.00000009  00000-0  00000+0 0  8688","2 43622  56.2224  77.8092 0009016 303.0441  56.8908  1.86231307 44133"],"43623":["1 43623U 18072B   25074.30513108 -.00000005  00000-0  00000+0 0  8371","2 43623  56.2231  77.8427 0006557 322.6498  37.3310  1.86231272 44109"],"43632":["1 43632U 18074A   25074.19345602  .00000133  00000-0  00000+0 0  7406","2 43632   0.0236 174.2232 0001523 184.9030 288.6638  1.00270302 23830"],"43636":["1 43636U 18075A   25074.23297884  .00001600  00000-0  34816-3 0  4676","2 43636  97.9230 114.9202 0009986 119.3675 240.8524 14.59236267343603"],"43647":["1 43647U 18078A   25072.85505799 -.00000070  00000-0  00000-0 0    14","2 43647  54.4983 316.0739 0008253  22.8432 337.2496  1.86232411 43589"],"43648":["1 43648U 18078B   25074.05818921 -.00000071  00000-0  00000+0 0  8055","2 43648  54.4932 316.0340 0005210  30.8163 329.2698  1.86232298 43636"],"43683":["1 43683U 18085A   25074.49798481 -.00000279  00000-0  00000+0 0  1310","2 43683   2.8689 100.5809 0003223 352.1766  39.8279  1.00268874 23450"],"43687":["1 43687U 18086A   25074.24571972  .00000005  00000-0  00000-0 0    15","2 43687  64.2949 208.0963 0007972 257.1263 102.7490  2.13102072 49502"],"43689":["1 43689U 18087A   25074.13706635  .00000339  00000-0  17502-3 0   100","2 43689  98.6843 135.7161 0002009  66.9550 293.1839 14.21486752329612"],"43706":["1 43706U 18093A   25074.21213910 -.00000004  00000-0  00000+0 0  8575","2 43706  54.1903 197.8675 0007171 289.9564  69.9307  1.86228504 42978"],"43707":["1 43707U 18093B   25074.07528221 -.00000006  00000-0  00000+0 0  8262","2 43707  54.1911 197.8639 0005975 329.7190  30.2098  1.86229951 42982"],"43816":["1 43816U 18099BL  25074.12721506  .00047930  00000-0  16805-2 0  9851","2 43816  97.5061 143.1036 0007056  72.8178 287.3833 15.29271714343554"],"43873":["1 43873U 18109A   25074.56005530  .00000028  00000-0  00000-0 0    10","2 43873  55.4168 110.2989 0033127 197.2708 334.9235  2.00566336 45870"],"44057":["1 44057U 19010A   25074.38352800  .00000097  00000-0  22036-3 0  1543","2 44057  87.9094 320.2608 0002223  92.4314 267.7071 13.16598305291229"],"44058":["1 44058U 19010B   25074.18087438  .00000050  00000-0  96609-4 0  2913","2 44058  87.9092 320.2832 0002038  68.8980 291.2369 13.16592976291249"],"44059":["1 44059U 19010C   25074.58618375  .00000156  00000-0  37406-3 0    13","2 44059  87.9092 320.2034 0001495  82.9398 277.1903 13.16596503291382"],"44060":["1 44060U 19010D   25074.48518163 -.00000041  00000-0 -14207-3 0    17","2 44060  87.9145 350.5976 0002202  78.6708 281.4669 13.15549710291067"],"44061":["1 44061U 19010E   25074.48913383  .00000008  00000-0 -12646-4 0    19","2 44061  87.9135 350.5549 0002087  74.6237 285.5123 13.15550590291111"],"44062":["1 44062U 19010F   25074.30692332  .00000130  00000-0  31122-3 0    13","2 44062  87.9140 350.5969 0001759  72.0544 288.0778 13.15548026291083"],"44204":["1 44204U 19023A   25074.31026073 -.00000205  00000-0  00000-0 0    11","2 44204  58.0459  42.3911 0022271 228.0427 134.0026  1.00273897  2618"],"44231":["1 44231U 19027A   25074.56547466 -.00000248  00000-0  00000+0 0  8762","2 44231   1.4541  74.6043 0005911 250.0536 196.7890  1.00275691 21477"],"44299":["1 44299U 19030A   25073.55354002 -.00000003  00000-0  00000-0 0    10","2 44299  64.3679 208.0986 0009886 283.6936  39.4365  2.13102381 45129"],"44337":["1 44337U 19035A   25074.63644851 -.00000131  00000-0  00000+0 0  5760","2 44337  55.1991 162.8886 0036488 202.0422 153.8586  1.00255358 21090"],"44343":["1 44343U 19036E   25074.35003683  .00012492  00000-0  73960-3 0    13","2 44343  23.9995  87.3101 0001508  89.7757 270.2920 15.09380113313903"],"44349":["1 44349U 19036L   25074.61482429  .00012468  00000-0  73754-3 0    11","2 44349  23.9987 261.4840 0002081  25.0829 334.9776 15.09409519315715"],"44350":["1 44350U 19036M   25074.37224629  .00014337  00000-0  85109-3 0    16","2 44350  23.9988 325.2433 0001856  56.4532 303.6149 15.09405232315099"],"44351":["1 44351U 19036N   25074.19669607  .00014374  00000-0  85403-3 0  1824","2 44351  23.9997  20.7737 0001766  69.6147 290.4546 15.09376874314634"],"44353":["1 44353U 19036Q   25074.59286461  .00013102  00000-0  77612-3 0    14","2 44353  23.9976 198.8683 0002029  67.2561 292.8157 15.09404589312870"],"44358":["1 44358U 19036V   25074.57057765  .00013533  00000-0  80225-3 0    12","2 44358  23.9987 138.8026 0001832  89.8272 270.2442 15.09406460313397"],"44506":["1 44506U 19056A   25074.19555993 -.00000104  00000-0  00000+0 0  9933","2 44506  55.8056 349.3582 0049102 193.9335 337.2606  2.00561034 40858"],"44542":["1 44542U 19061A   25074.14580426 -.00000005  00000-0  00000+0 0  5029","2 44542  54.4181 198.2099 0007939  12.2290 347.7535  1.86229059 37248"],"44543":["1 44543U 19061B   25074.01143573 -.00000006  00000-0  00000+0 0  5092","2 44543  54.4167 198.1828 0004627   4.6224 177.9490  1.86229377 37230"],"44709":["1 44709U 19073A   25074.97718727 -.00000158  00000-0  00000-0 0    19","2 44709  55.5843 285.8298 0042072 181.6890 178.3196  1.00273897 19862"],"44714":["1 44714U 19074B   25074.17105513  .00043594  00000-0  29232-2 0  6264","2 44714  53.0561   0.5566 0001668  96.8172 263.3007 15.06454058294732"],"44718":["1 44718U 19074F   25074.08260191  .00014259  00000-0  97373-3 0  5573","2 44718  53.0548   0.9534 0001433  80.4921 279.6230 15.06419232294712"]}}